objectid,City,Station ID,Station Name,Number of Docks,Installed,On/Off-Street,EPC Status,Transit Status,Latitude,Longitude,x,y
1,San Jose,SJ-Q9,Willow St at Vine St,15,2017-09-19,On-Street,1,1,37.3184498,-121.88317,-121.88317,37.3184498000001
2,San Jose,SJ-Q4,Willow St at Blewett Ave,23,2019-10-18,On-Street,0,1,37.3090141,-121.90001,-121.90001,37.3090141000001
3,San Jose,SJ-O12,William St at 10th St,23,2017-09-18,Off-Street,1,1,37.3327938,-121.87593,-121.87593,37.3327938
4,San Jose,SJ-P10-2,Virginia St at 2nd St,19,2017-06-29,On-Street,1,1,37.324414,-121.88078,-121.88078,37.324414
5,San Jose,SJ-L7-2,The Alameda at Bush St,23,2017-06-30,Off-Street,0,1,37.3319323,-121.90489,-121.90489,37.3319323000001
6,San Jose,SJ-I11,Taylor St at 9th St,23,2019-02-13,On-Street,0,1,37.3530617,-121.89194,-121.89194,37.3530617000001
7,San Jose,SJ-N5,Sunol St at San Carlos St,27,2019-03-29,On-Street,0,1,37.3234513,-121.90598,-121.90598,37.3234513
8,San Jose,SJ-J6,Stockton Ave at Lenzen Ave,23,2019-05-10,On-Street,0,1,37.3367748,-121.90915,-121.90915,37.3367748000001
9,San Jose,SJ-L11,St James St at 9th St,19,2019-12-13,On-Street,1,1,37.3432085,-121.88439,-121.88439,37.3432085000001
10,San Jose,SJ-R11,South San Jose State (7th St at Humboldt St),31,2019-05-09,On-Street,1,1,37.3203158,-121.8701,-121.8701,37.3203158000001
11,San Jose,SJ-E9,Sonora Ave at 1st St,15,2019-03-21,On-Street,1,1,37.3640605,-121.91173,-121.91173,37.3640605000001
12,San Jose,SJ-D9,Skyport Dr at Technology Dr,19,2019-03-26,On-Street,1,1,37.3652266,-121.91681,-121.91681,37.3652266
13,San Jose,SJ-L7-1,SAP Center,23,2017-07-13,Off-Street,0,1,37.332692,-121.90008,-121.90008,37.3326920000001
14,San Jose,SJ-M9-2,Santa Clara St at Almaden Blvd,11,2017-07-14,Off-Street,0,1,37.333988,-121.8949,-121.8949,37.333988
15,San Jose,SJ-M11-1,Santa Clara St at 7th St,15,2017-06-30,On-Street,1,1,37.3391456,-121.88411,-121.88411,37.3391456000001
16,San Jose,SJ-N11,San Salvador St at 9th St,19,2017-06-30,On-Street,1,1,37.333955,-121.87735,-121.87735,37.3339550000001
17,San Jose,SJ-H9,San Pedro St at Hedding St,23,2018-03-22,On-Street,0,1,37.352601,-121.90573,-121.90573,37.352601
18,San Jose,SJ-L9,San Pedro Square,15,2017-10-19,Off-Street,0,1,37.336802,-121.89409,-121.89409,37.336802
19,San Jose,SJ-M7-1,San Jose Diridon Station,35,2017-07-17,Off-Street,0,1,37.329732,-121.90178,-121.90178,37.329732
20,San Jose,SJ-M10-1,San Jose City Hall,23,2017-07-13,Off-Street,1,1,37.337391,-121.887,-121.887,37.337391
21,San Jose,SJ-M11-2,San Fernando St at 7th St,23,2017-07-12,On-Street,1,1,37.3371224,-121.88321,-121.88321,37.3371224000001
22,San Jose,SJ-M10-2,San Fernando St at 4th St,23,2017-07-13,Off-Street,1,1,37.335885,-121.88566,-121.88566,37.3358850000001
23,San Jose,SJ-M4,San Carlos St at Meridian Ave,19,2019-05-16,Off-Street,0,1,37.3233447,-121.9135,-121.9135,37.3233447000001
24,San Jose,SJ-N9,San Carlos St at Market St,15,2017-07-14,Off-Street,0,1,37.330698,-121.88898,-121.88898,37.330698
25,San Jose,SJ-N12-1,San Carlos St at 11th St,19,2017-07-11,On-Street,0,1,37.3364659,-121.87661,-121.87661,37.3364659000001
26,San Jose,SJ-L10,Saint James Park,15,2017-09-27,Off-Street,1,1,37.339301,-121.88994,-121.88994,37.339301
27,San Jose,SJ-K9,Ryland Park,23,2017-07-13,Off-Street,0,1,37.342725,-121.89562,-121.89562,37.342725
28,San Jose,SJ-H11,Raymond Bernal Jr Memorial Park (8th St at Hedding St),23,2019-03-22,On-Street,0,1,37.3568344,-121.89594,-121.89594,37.3568344
29,San Jose,SJ-O10,Pierce Ave at Market St,27,2017-12-20,On-Street,1,1,37.327581,-121.88456,-121.88456,37.3275810000001
30,San Jose,SJ-M10-3,Paseo De San Antonio at 2nd St,19,2017-07-14,Off-Street,1,1,37.333798,-121.88694,-121.88694,37.3337980000001
31,San Jose,SJ-O4,Parkmoor Ave at Race St,27,2019-04-03,On-Street,0,1,37.3167365,-121.91,-121.91,37.3167365
32,San Jose,SJ-M5,Park Ave at Race St,23,2019-04-16,On-Street,0,1,37.3260108,-121.91233,-121.91233,37.3260108000001
33,San Jose,SJ-M6-2,Park Ave at Laurel Grove Ln,19,2019-12-13,On-Street,0,1,37.3262823,-121.90491,-121.90491,37.3262823000001
34,San Jose,SJ-Q8,Palm St at Willow St,19,2017-09-19,On-Street,1,1,37.3172979,-121.885,-121.885,37.3172979
35,San Jose,SJ-P9,Oak St at 1st St,23,2018-02-22,On-Street,1,1,37.3221246,-121.88109,-121.88109,37.3221246000001
36,San Jose,SJ-H17,Newbury Park Dr at King Rd,23,2019-10-17,On-Street,1,1,37.3655357,-121.86797,-121.86797,37.3655357000001
37,San Jose,SJ-K6,Morrison Ave at Julian St,19,2019-08-28,On-Street,0,1,37.3336771,-121.9086179,-121.9086179,37.3336771
38,San Jose,SJ-H10,Mission St at 1st St,27,2017-11-07,On-Street,0,1,37.3509643,-121.90202,-121.90202,37.3509643
39,San Jose,SJ-C9,Metro Dr at Technology Dr,23,2019-03-26,On-Street,1,1,37.3676781,-121.91879,-121.91879,37.3676781
40,San Jose,SJ-G15,Mercado Way at Sierra Rd,19,2019-11-27,On-Street,0,1,37.3711164,-121.88133,-121.88133,37.3711164000001
41,San Jose,SJ-H16,Mabury Rd at Lenfest Rd,19,2022-05-13,Off-Street,1,1,37.36506967,-121.871708,-121.871708,37.36506967
42,San Jose,SJ-P8,Locust St at Grant St,19,2017-09-15,On-Street,1,1,37.3229796,-121.88793,-121.88793,37.3229796000001
43,San Jose,SJ-F10,Kerley Dr at Rosemary St,19,2019-03-14,Off-Street,1,1,37.3608542,-121.90683,-121.90683,37.3608542000001
44,San Jose,SJ-K5,Julian St at The Alameda,23,2017-07-11,On-Street,0,1,37.3322326,-121.91252,-121.91252,37.3322326000001
45,San Jose,SJ-K11,Julian St at 6th St,15,2017-06-30,On-Street,1,1,37.3429973,-121.88889,-121.88889,37.3429973
46,San Jose,SJ-J10,Jackson St at 5th St,27,2017-07-19,On-Street,1,1,37.3487587,-121.8948,-121.8948,37.3487587000001
47,San Jose,SJ-E10,Gish Rd at 1st St,23,2019-03-12,On-Street,1,1,37.3618668,-121.90932,-121.90932,37.3618668
48,San Jose,SJ-I9,George St at 1st St,19,2019-09-09,On-Street,0,1,37.3475926,-121.89966,-121.89966,37.3475926
49,San Jose,SJ-M10-4,Fountain Alley at S 2nd St,11,2018-01-23,Off-Street,1,1,37.3361883,-121.88928,-121.88928,37.3361883000001
50,San Jose,SJ-J9,Empire St at 1st St,19,2017-12-21,On-Street,0,1,37.3448821,-121.89697,-121.89697,37.3448821000001
51,San Jose,SJ-L9-2,Devine St at San Pedro St,23,2019-11-22,On-Street,0,1,37.3386706,-121.89564,-121.89564,37.3386706000001
52,San Jose,SJ-P7,Delmas Ave at Virginia St,19,2019-04-19,On-Street,0,1,37.31997453,-121.8932198,-121.8932198,37.31997453
53,San Jose,SJ-M8-2,Delmas Ave and San Fernando St,19,2017-11-08,On-Street,0,1,37.3302641,-121.8977,-121.8977,37.3302641000001
54,San Jose,SJ-N7,Columbia Ave at Bird Ave,23,2019-10-18,On-Street,0,1,37.324126,-121.89972,-121.89972,37.324126
55,San Jose,SJ-M6,Cahill Park,23,2017-06-29,Off-Street,0,1,37.3291187,-121.90458,-121.90458,37.3291187
56,San Jose,SJ-Q5,Bird Ave at Willow St,19,2019-05-21,On-Street,0,1,37.3112839,-121.89633,-121.89633,37.3112839
57,San Jose,SJ-P6,Bird Ave at Coe Ave,15,2019-03-27,On-Street,0,1,37.3151579,-121.89783,-121.89783,37.3151579
58,San Jose,SJ-Q11,Bestor Art Park,15,2017-11-08,On-Street,1,1,37.3236779,-121.87412,-121.87412,37.3236779000001
59,San Jose,SJ-J12-2,Backesto Park (Jackson St at 13th St),15,2019-02-11,On-Street,0,1,37.3528868,-121.88605,-121.88605,37.3528868000001
60,San Jose,SJ-N6,Auzerais Ave at Los Gatos Creek Trail,23,2019-04-18,On-Street,0,1,37.3211818,-121.90309,-121.90309,37.3211818
61,San Jose,SJ-N5-2,Auzerais Ave at Lincoln Ave,27,2019-05-17,On-Street,0,1,37.3209685,-121.9083,-121.9083,37.3209685
62,San Jose,SJ-J8,Autumn Parkway at Coleman Ave,15,2017-09-18,On-Street,0,1,37.3413348,-121.90318,-121.90318,37.3413348
63,San Jose,SJ-I5,Asbury St at The Alameda,23,,On-Street,0,1,37.3380223,-121.9194782,-121.9194782,37.3380223
64,San Jose,SJ-M8,Almaden Blvd at San Fernando St,23,2017-07-13,Off-Street,0,1,37.331415,-121.8932,-121.8932,37.331415
65,San Jose,SJ-O9,Almaden Blvd at Balbach St,19,2017-07-11,On-Street,1,1,37.32673,-121.88927,-121.88927,37.3267300000001
66,San Jose,SJ-I14,23rd St at Taylor St,19,2019-05-10,On-Street,0,1,37.3600014,-121.87878,-121.87878,37.3600014
67,San Jose,SJ-M14,23rd St at Santa Clara St,19,2019-04-16,On-Street,1,1,37.34648029,-121.8685696,-121.8685696,37.34648029
68,San Jose,SJ-N14,22nd St at William St,15,2019-10-24,On-Street,1,1,37.3403787,-121.86402,-121.86402,37.3403787
69,San Jose,SJ-N14-2,19th St at William St,15,2019-10-24,On-Street,1,1,37.338468,-121.86652,-121.86652,37.338468
70,San Jose,SJ-L13,17th St at Santa Clara St,19,2019-04-18,On-Street,1,1,37.3439847,-121.87438,-121.87438,37.3439847000001
71,San Jose,SJ-L12,14th St at Santa Clara St,23,2019-09-25,On-Street,0,1,37.34238,-121.8772924,-121.8772924,37.34238
72,San Jose,SJ-H12,10th St at Mission St,23,2019-03-22,On-Street,0,1,37.35532813,-121.8920773,-121.8920773,37.35532813
73,San Jose,SJ-J12-1,10th St at Empire St,23,2019-03-12,On-Street,1,1,37.3494263,-121.88762,-121.88762,37.3494263000001
74,San Jose,SJ-M11-3,9th St at San Fernando St,19,2017-07-12,On-Street,1,1,37.3383952,-121.8808,-121.8808,37.3383952
75,San Jose,SJ-J11,7th St at Empire St,31,2019-08-29,On-Street,1,1,37.347712,-121.89055,-121.89055,37.3477120000001
76,San Jose,SJ-P10,5th St at Virginia St,27,2017-09-15,On-Street,1,1,37.3259984,-121.87712,-121.87712,37.3259984000001
77,San Jose,SJ-I10,5th St at Taylor St,23,2019-09-25,On-Street,1,1,37.3509018,-121.8958426,-121.8958426,37.3509018
78,San Jose,SJ-N10-3,5th St at San Salvador St,19,2017-07-19,Off-Street,1,1,37.3320387,-121.88177,-121.88177,37.3320387000001
79,San Jose,SJ-N10-1,4th St at San Carlos St,19,2019-07-09,On-Street,1,1,37.3327995,-121.88385,-121.88385,37.3327995000001
80,San Jose,SJ-Q10,3rd St at Keyes St,23,2019-06-27,On-Street,1,1,37.3208661,-121.87628,-121.87628,37.3208661
81,San Jose,SJ-K10,2nd St at Julian St,23,2018-07-11,On-Street,1,1,37.341132,-121.89284,-121.89284,37.3411320000001
82,San Jose,SJ-G10,1st St at Younger Ave,19,2019-03-14,On-Street,0,1,37.3550296,-121.90444,-121.90444,37.3550296000001
83,San Jose,SJ-N10-2,1st St at San Carlos St,19,2019-05-07,On-Street,0,1,37.331168,-121.88694,-121.88694,37.331168
84,Oakland,OK-H3-2,West St at Brockhurst St,19,2022-04-07,On-Street,1,1,37.8227521,-122.2729879,-122.2729879,37.8227521000001
85,Oakland,OK-F3,West St at 40th St,23,2017-07-20,On-Street,1,1,37.8302232,-122.27095,-122.27095,37.8302232
86,Oakland,OK-N1,West Oakland BART Station,23,2017-09-26,On-Street,1,1,37.8053183,-122.29484,-122.29484,37.8053183000001
87,Oakland,OK-K6,Webster St at 19th St,27,2017-12-13,On-Street,1,1,37.8069698,-122.26659,-122.26659,37.8069698
88,Oakland,OK-N6,Webster St at 2nd St,27,2018-03-14,On-Street,0,1,37.7951948,-122.27397,-122.27397,37.7951948
89,Oakland,OK-M5,Washington St at 8th St,27,2017-08-28,Off-Street,1,1,37.8007544,-122.27489,-122.27489,37.8007544000001
90,Oakland,OK-M2,Union St at 10th St,19,2017-07-24,On-Street,1,1,37.8072393,-122.28937,-122.28937,37.8072393
91,Oakland,OK-A2,Telegraph Ave at Alcatraz Ave,11,2017-07-06,On-Street,0,1,37.8502219,-122.26017,-122.26017,37.8502219000001
92,Oakland,OK-B3,Telegraph Ave at 58th St,15,2017-07-05,Off-Street,0,1,37.8444927,-122.26135,-122.26135,37.8444927
93,Oakland,OK-D4,Telegraph Ave at 49th St,15,2017-07-05,On-Street,0,1,37.8359455,-122.26237,-122.26237,37.8359455
94,Oakland,OK-I5,Telegraph Ave at 27th St,19,2017-07-03,Off-Street,1,1,37.8160731,-122.26789,-122.26789,37.8160731
95,Oakland,OK-K5-1,Telegraph Ave at 19th St,27,2017-07-03,Off-Street,1,1,37.8087021,-122.26993,-122.26993,37.8087021000001
96,Oakland,OK-J6-2,Snow Park,31,2017-07-08,On-Street,0,1,37.8078132,-122.2645,-122.2645,37.8078132000001
97,Oakland,OK-E4,Shattuck Ave at Telegraph Ave,19,2017-07-03,Off-Street,0,1,37.83353887,-122.2636937,-122.2636937,37.83353887
98,Oakland,OK-D3-1,Shattuck Ave at 55th St,15,2017-07-03,On-Street,0,1,37.8403643,-122.26449,-122.26449,37.8403643
99,Oakland,OK-K4,San Pablo Ave at MLK Jr Way,19,2017-07-07,On-Street,1,1,37.8113514,-122.27342,-122.27342,37.8113514
100,Oakland,OK-I3,San Pablo Ave at 27th St,19,2017-11-10,On-Street,1,1,37.8178269,-122.2757,-122.2757,37.8178269000001
101,Oakland,OK-L12,San Antonio Park,15,2017-07-28,On-Street,1,1,37.7901399,-122.24237,-122.24237,37.7901399
102,Oakland,OK-B4,Rockridge BART Station,25,2018-01-11,Off-Street,0,1,37.8442788,-122.2519,-122.2519,37.8442788
103,Oakland,OK-G5,Mosswood Park,31,2017-07-07,On-Street,0,1,37.8248925,-122.26044,-122.26044,37.8248925
104,Oakland,OK-L4,MLK Jr Way at 14th St,19,2017-07-07,On-Street,1,1,37.8061628,-122.27604,-122.27604,37.8061628
105,Oakland,OK-C4,Miles Ave at Cavour St,19,2018-07-23,On-Street,0,1,37.8388,-122.25873,-122.25873,37.8388
106,Oakland,OK-K3,Marston Campbell Park,19,2017-09-06,On-Street,1,1,37.8098236,-122.28019,-122.28019,37.8098236000001
107,Oakland,OK-F2-2,Market St at 45th St,15,2018-03-28,On-Street,1,1,37.834174,-122.27297,-122.27297,37.8341740000001
108,Oakland,OK-G2,Market St at 40th St,15,2017-07-08,On-Street,1,1,37.8305452,-122.27394,-122.27394,37.8305452000001
109,Oakland,OK-K7,Madison St at 17th St,19,2018-09-06,On-Street,0,1,37.8040368,-122.26241,-122.26241,37.8040368000001
110,Oakland,OK-G4,MacArthur Blvd at Telegraph Ave,19,2017-07-05,Off-Street,0,1,37.8262863,-122.2651,-122.2651,37.8262863
111,Oakland,OK-F4,MacArthur BART Station,31,2017-08-19,Off-Street,0,1,37.82841,-122.26631,-122.26631,37.8284100000001
112,Oakland,OK-L7-2,Lakeside Dr at 14th St,27,2017-07-05,Off-Street,0,1,37.8013189,-122.26264,-122.26264,37.8013189000001
113,Oakland,OK-H9-2,Lakeshore Ave at Trestle Glen Rd,15,2017-07-25,On-Street,0,1,37.8110807,-122.24327,-122.24327,37.8110807
114,Oakland,OK-M7,Lake Merritt BART Station,27,2017-08-02,Off-Street,1,1,37.7973195,-122.26532,-122.26532,37.7973195000001
115,Oakland,OK-L7,Jackson St at 11th St,27,2017-07-06,On-Street,1,1,37.8000016,-122.26644,-122.26644,37.8000016
116,Oakland,OK-N5,Jack London Square,27,2018-03-14,On-Street,0,1,37.796248,-122.27935,-122.27935,37.796248
117,Oakland,OK-J4,Isabella St at San Pablo Ave,19,2017-07-27,Off-Street,1,1,37.8149882,-122.27484,-122.27484,37.8149882000001
118,Oakland,OK-J6-1,Grand Ave at Webster St,27,2017-07-05,On-Street,1,1,37.8113768,-122.26519,-122.26519,37.8113768000001
119,Oakland,OK-H9-1,Grand Ave at Santa Clara Ave,19,2017-07-25,On-Street,0,1,37.8127441,-122.24722,-122.24722,37.8127441
120,Oakland,OK-I8,Grand Ave at Perkins St,23,2017-07-21,On-Street,0,1,37.8088939,-122.25646,-122.25646,37.8088939
121,Oakland,OK-D2,Genoa St at 55th St,15,2017-07-08,On-Street,0,1,37.8396488,-122.27176,-122.27176,37.8396488000001
122,Oakland,OK-N17,Fruitvale BART Station,15,2017-12-18,Off-Street,1,1,37.7752321,-122.2245,-122.2245,37.7752321
123,Oakland,OK-L6,Franklin St at 13th St,23,2017-07-05,On-Street,1,1,37.80303014,-122.2704962,-122.2704962,37.80303014
124,Oakland,OK-M6,Franklin St at 9th St,27,2017-07-05,On-Street,1,1,37.8005161,-122.27208,-122.27208,37.8005161
125,Oakland,OK-L5,Frank H Ogawa Plaza,35,2017-07-03,Off-Street,1,1,37.8045624,-122.27174,-122.27174,37.8045624000001
126,Oakland,OK-K17,Foothill Blvd at Harrington Ave,19,2017-09-07,On-Street,1,1,37.77993,-122.21773,-122.21773,37.77993
127,Oakland,OK-L16,Foothill Blvd at Fruitvale Ave,15,2017-07-28,On-Street,1,1,37.7837569,-122.2226,-122.2226,37.7837569000001
128,Oakland,OK-M16,Farnam St at Fruitvale Ave,19,2018-11-15,On-Street,1,1,37.778058,-122.2254,-122.2254,37.778058
129,Oakland,OK-I9,El Embarcadero at Grand Ave,23,2017-07-24,Off-Street,0,1,37.8088479,-122.24968,-122.24968,37.8088479
130,Oakland,OK-C2,Dover St at 57th St,15,2017-07-20,On-Street,0,1,37.8426295,-122.26774,-122.26774,37.8426295
131,Oakland,OK-K2,DeFremery Park,15,2017-07-24,On-Street,1,1,37.8123315,-122.28517,-122.28517,37.8123315
132,Oakland,OK-B5,College Ave at Taft Ave,15,2017-07-06,On-Street,0,1,37.8417999,-122.25153,-122.25153,37.8417999000001
133,Oakland,OK-C5,College Ave at Bryant Ave,23,2017-11-10,On-Street,0,1,37.8381269,-122.25127,-122.25127,37.8381269000001
134,Oakland,OK-M4,Chestnut St at 10th St,23,2017-09-05,On-Street,1,1,37.8063553,-122.2860187,-122.2860187,37.8063553000001
135,Oakland,OK-B2,Bushrod Park,19,2017-07-07,On-Street,0,1,37.8465156,-122.2653,-122.2653,37.8465156
136,Oakland,OK-H2-2,Brockhurst St at San Pablo Ave,19,2022-06-24,On-Street,1,1,37.82352279,-122.2771883,-122.2771883,37.82352279
137,Oakland,OK-D5,Broadway at Coronado Ave,23,2017-09-05,On-Street,0,1,37.8357883,-122.25162,-122.25162,37.8357883
138,Oakland,OK-F5,Broadway at 40th St,23,2017-07-10,On-Street,0,1,37.8277573,-122.25672,-122.25672,37.8277573
139,Oakland,OK-H5,Broadway at 30th St,19,2017-07-07,On-Street,1,1,37.8193814,-122.26193,-122.26193,37.8193814000001
140,Oakland,OK-L19,Bond St at High St,15,2017-07-31,On-Street,1,1,37.7741526,-122.2124,-122.2124,37.7741526
141,Oakland,OK-I6,Bay Pl at Vernon St,23,2017-07-18,On-Street,0,1,37.81225022,-122.2607186,-122.2607186,37.8122502200001
142,Oakland,OK-B1,Alcatraz Ave at Shattuck Ave,15,2018-03-28,On-Street,0,1,37.849595,-122.26557,-122.26557,37.8495950000001
143,Oakland,OK-A4,62nd St at Claremont Ave,23,2017-09-05,On-Street,0,1,37.84942425,-122.252558,-122.252558,37.84942425
144,Oakland,OK-C3,55th St at Telegraph Ave,19,2017-09-06,On-Street,0,1,37.8401858,-122.26182,-122.26182,37.8401858
145,Oakland,OK-D3-2,52nd St at MLK Jr Way,23,2017-07-03,On-Street,0,1,37.837369,-122.267656,-122.267656,37.837369
146,Oakland,OK-E3,45th St at MLK Jr Way,19,2017-07-06,On-Street,1,1,37.8335577,-122.26742,-122.26742,37.8335577
147,Oakland,OK-E5,45th St at Manila,23,2017-07-12,On-Street,0,1,37.8332935,-122.25622,-122.25622,37.8332935
148,Oakland,OK-F6,40th St at Piedmont Ave,19,2017-07-20,On-Street,0,1,37.8258212,-122.2534976,-122.2534976,37.8258212000001
149,Oakland,OK-G3,37th St at West St,23,2017-07-08,On-Street,1,1,37.8266956,-122.2718,-122.2718,37.8266956000001
150,Oakland,OK-H4-3,34th St at Telegraph Ave,23,2017-10-04,On-Street,1,1,37.82244688,-122.2659453,-122.2659453,37.82244688
151,Oakland,OK-H2,32nd St at Adeline St,15,2017-09-07,On-Street,1,1,37.8238474,-122.28119,-122.28119,37.8238474
152,Oakland,OK-I4,27th St at MLK Jr Way,19,2018-01-30,On-Street,1,1,37.8170154,-122.27176,-122.27176,37.8170154000001
153,Oakland,OK-M14,26th Ave at International Blvd,15,2017-08-02,On-Street,1,1,37.781123,-122.23299,-122.23299,37.781123
154,Oakland,OK-J3,24th St at Market St,19,2017-07-06,On-Street,1,1,37.8160598,-122.27824,-122.27824,37.8160598000001
155,Oakland,OK-J5,23rd St at Telegraph Ave,19,2017-07-03,On-Street,1,1,37.81258109,-122.268573,-122.268573,37.81258109
156,Oakland,OK-L14,23rd Ave at Foothill Blvd,15,2018-01-18,Off-Street,1,1,37.7851915,-122.23438,-122.23438,37.7851915000001
157,Oakland,OK-K10,21st St at 5th Ave,23,2018-07-26,On-Street,0,1,37.8004594,-122.24746,-122.24746,37.8004594000001
158,Oakland,OK-K5-2,19th Street BART Station,35,2017-07-03,On-Street,1,1,37.8093686,-122.26795,-122.26795,37.8093686
159,Oakland,OK-L1,14th St at Mandela Pkwy,15,2017-07-24,Off-Street,1,1,37.8107432,-122.29142,-122.29142,37.8107432
160,Oakland,OK-L3,14th St at Filbert St,19,2017-09-06,On-Street,1,1,37.8087498,-122.28328,-122.28328,37.8087498
161,Oakland,OK-L6-2,13th St at Webster St,19,2020-12-18,On-Street,1,1,37.8026884,-122.2691464,-122.2691464,37.8026884000001
162,Oakland,OK-L8,10th St at Fallon St,23,2017-07-07,On-Street,1,1,37.7976728,-122.263,-122.263,37.7976728
163,Oakland,OK-L11,10th Ave at E 15th St,15,2017-07-24,On-Street,1,1,37.7927143,-122.24878,-122.24878,37.7927143000001
164,Oakland,OK-L10,6th Ave at E 12th St (Temporary Location),15,2018-09-12,On-Street,1,1,37.794396,-122.253842,-122.253842,37.7943960000001
165,Oakland,OK-L9,4th Ave at E 12th St (Temporary Location),19,2018-09-11,On-Street,1,1,37.795913,-122.25555,-122.25555,37.795913
166,Oakland,OK-K9,2nd Ave at E 18th St,35,2017-07-24,On-Street,1,1,37.8002136,-122.25381,-122.25381,37.8002136000001
167,Emeryville,EM-B2,Stanford Ave at Hollis St,15,2017-09-01,On-Street,0,1,37.8384435,-122.28866,-122.28866,37.8384435
168,Emeryville,EM-D2,Horton St at 40th St,23,2017-07-06,On-Street,1,1,37.8297046,-122.28761,-122.28761,37.8297046000001
169,Emeryville,EM-D3,Emeryville Town Hall,23,2017-07-06,On-Street,1,1,37.8312752,-122.28563,-122.28563,37.8312752000001
170,Emeryville,EM-B1,Emeryville Public Market,19,2018-03-15,Off-Street,0,1,37.8405212,-122.2935283,-122.2935283,37.8405212000001
171,Emeryville,EM-A2,Doyle St at 59th St,15,2017-08-31,On-Street,0,1,37.8419238,-122.28805,-122.28805,37.8419238000001
172,Emeryville,EM-D4,Adeline St at 40th St,15,2017-07-06,On-Street,1,1,37.8312769,-122.27827,-122.27827,37.8312769
173,Emeryville,EM-B0-2,2100 Powell St,23,2019-04-10,Off-Street,0,1,37.8395431,-122.29872,-122.29872,37.8395431000001
174,Emeryville,EM-C1,65th St at Hollis St,19,2017-08-31,On-Street,0,1,37.8467842,-122.29138,-122.29138,37.8467842000001
175,Emeryville,EM-A1,59th St at Horton St,19,2017-10-06,On-Street,0,1,37.8409452,-122.29136,-122.29136,37.8409452000001
176,Emeryville,EM-C2,53rd St at Hollis St,23,2017-09-01,On-Street,0,1,37.8361823,-122.28718,-122.28718,37.8361823000001
177,Emeryville,EM-C3,47th St at San Pablo Ave,19,2017-10-25,On-Street,1,1,37.8356703,-122.2811258,-122.2811258,37.8356703000001
178,San Francisco,SF-H27-1,Yerba Buena Center for the Arts (Howard St at 3rd St),19,2017-08-17,Off-Street,0,1,37.78487208,-122.4008757,-122.4008757,37.7848720800001
179,San Francisco,SF-Y27,Williams Ave at Apollo St,15,2018-09-20,On-Street,0,1,37.73016751,-122.3989633,-122.3989633,37.7301675100001
180,San Francisco,SF-Y29,Williams Ave at 3rd St,19,2018-09-20,On-Street,1,1,37.72927865,-122.3928961,-122.3928961,37.72927865
181,San Francisco,SF-C20-2,Webster St at Union St,23,2022-09-20,On-Street,0,1,37.7974387,-122.4339891,-122.4339891,37.7974387
182,San Francisco,SF-H20,Webster St at O'Farrell St,27,2017-08-30,On-Street,1,1,37.78352084,-122.4311578,-122.4311578,37.7835208400001
183,San Francisco,SF-J20,Webster St at Grove St,27,2017-09-01,On-Street,0,1,37.7770527,-122.4295585,-122.4295585,37.7770527000001
184,San Francisco,SF-E20,Webster St at Clay St,19,2019-11-27,On-Street,0,1,37.79080303,-122.4325901,-122.4325901,37.7908030300001
185,San Francisco,SF-E22,Washington St at Van Ness Ave,27,2021-07-23,On-Street,0,1,37.79297436,-122.423303,-122.423303,37.7929743600001
186,San Francisco,SF-D27,Washington St at Kearny St,31,2017-06-14,On-Street,1,1,37.79539294,-122.4047703,-122.4047703,37.7953929400001
187,San Francisco,SF-L15,Waller St at Shrader St,27,2022-02-01,On-Street,0,1,37.791966,-122.429315,-122.429315,37.7919660000001
188,San Francisco,SF-J26,Victoria Manalo Draves Park,15,2017-06-12,On-Street,1,1,37.77779057,-122.4064319,-122.4064319,37.77779057
189,San Francisco,SF-L22,Valencia St at Clinton Park,19,2018-06-14,On-Street,1,1,37.76918818,-122.4222851,-122.4222851,37.7691881800001
190,San Francisco,SF-S22-1,Valencia St at Cesar Chavez St,19,2017-08-04,On-Street,0,1,37.7479981,-122.4202187,-122.4202187,37.7479981000001
191,San Francisco,SF-Q22-2,Valencia St at 24th St,23,2017-08-09,On-Street,1,1,37.7524278,-122.4206278,-122.4206278,37.7524278000001
192,San Francisco,SF-Q22-1,Valencia St at 22nd St,22,2017-08-09,On-Street,0,1,37.7552126,-122.4209752,-122.4209752,37.7552126
193,San Francisco,SF-P22,Valencia St at 21st St,23,2017-08-04,On-Street,0,1,37.7567083,-122.421025,-122.421025,37.7567083000001
194,San Francisco,SF-M22-2,Valencia St at 16th St,23,2017-07-12,On-Street,1,1,37.765695,-122.421918,-122.421918,37.7656950000001
195,San Francisco,SF-F26,Union Square (Powell St at Post St),27,2017-06-25,On-Street,0,1,37.78829998,-122.4085307,-122.4085307,37.78829998
196,San Francisco,SF-I20,Turk St at Fillmore St,23,2018-08-13,Off-Street,1,1,37.78045006,-122.4319464,-122.4319464,37.7804500600001
197,San Francisco,SF-J14,Turk Blvd at Stanyan St,21,2019-10-11,Off-Street,0,1,37.77760931,-122.4546218,-122.4546218,37.7776093100001
198,San Francisco,SF-L27,Townsend St at 7th St,27,2017-06-24,Off-Street,0,1,37.771058,-122.402717,-122.402717,37.771058
199,San Francisco,SF-K28-3,Townsend St at 6th St,23,2020-08-20,On-Street,0,1,37.773238,-122.399998,-122.399998,37.773238
200,San Francisco,SF-K28,Townsend St at 5th St,35,2017-08-18,On-Street,0,1,37.77523487,-122.3974371,-122.3974371,37.7752348700001
201,San Francisco,SF-B15,Torney Ave at Lincoln Blvd,23,2022-02-10,On-Street,0,1,37.79959075,-122.4525088,-122.4525088,37.79959075
202,San Francisco,SF-C28-1,The Embarcadero at Vallejo St,23,2017-06-27,Off-Street,0,1,37.799953,-122.398525,-122.398525,37.7999530000001
203,San Francisco,SF-F30-1,The Embarcadero at Steuart St,23,2017-06-24,Off-Street,0,1,37.791464,-122.391034,-122.391034,37.7914640000001
204,San Francisco,SF-A27,The Embarcadero at Sansome St,23,2017-06-27,Off-Street,0,1,37.80477,-122.403234,-122.403234,37.8047700000001
205,San Francisco,SF-H30,The Embarcadero at Pier 38,26,2019-09-19,Off-Street,0,1,37.78292609,-122.3879206,-122.3879206,37.78292609
206,San Francisco,SF-G30-2,The Embarcadero at Bryant St,19,2017-06-27,Off-Street,0,1,37.78716801,-122.3880979,-122.3880979,37.7871680100001
207,San Francisco,SF-M30-2,Terry Francois Blvd at Warriors Way,44,2019-09-03,On-Street,0,1,37.76909489,-122.3863328,-122.3863328,37.7690948900001
208,San Francisco,SF-L31-1,Terry Francois Blvd at Mission Bay Blvd N,27,2019-09-04,On-Street,0,1,37.77132959,-122.3866224,-122.3866224,37.7713295900001
209,San Francisco,SF-G29-3,Tehama St at 1st St,39,2020-06-25,On-Street,0,1,37.788032,-122.395626,-122.395626,37.788032
210,San Francisco,SF-B24-1,Taylor St at Columbus Ave,27,2023-05-25,On-Street,0,1,37.80330737,-122.4148976,-122.4148976,37.80330737
211,San Francisco,SF-F19,Steiner St at California St,19,2019-11-01,Off-Street,0,1,37.78856891,-122.4354011,-122.4354011,37.78856891
212,San Francisco,SF-H14,Stanyan St at Geary Blvd,19,2020-06-26,On-Street,0,1,37.780949,-122.456303,-122.456303,37.7809490000001
213,San Francisco,SF-H17,St. Joseph's Ave at Geary Blvd,27,2020-02-06,On-Street,0,1,37.782476,-122.442534,-122.442534,37.782476
214,San Francisco,SF-F15,Spruce St at California St,24,2020-03-13,Off-Street,0,1,37.7865785,-122.4534228,-122.4534228,37.7865785000001
215,San Francisco,SF-F30-2,Spear St at Folsom St,19,2017-06-23,On-Street,0,1,37.7896767,-122.3904285,-122.3904285,37.7896767
216,San Francisco,SF-I30-3,South Park St at 2nd St,29,2023-04-20,On-Street,0,1,37.78235803,-122.39313,-122.39313,37.7823580300001
217,San Francisco,SF-Y7,SFSU Park North - West,27,2022-02-16,On-Street,1,1,37.72628518,-122.4794808,-122.4794808,37.72628518
218,San Francisco,SF-Y8,SFSU Park North - East,15,2022-02-17,On-Street,1,1,37.72566152,-122.4766261,-122.4766261,37.7256615200001
219,San Francisco,SF-I19,Scott St at Golden Gate Ave,27,2017-08-14,On-Street,1,1,37.77911463,-122.4368621,-122.4368621,37.77911463
220,San Francisco,SF-F18,Scott St at California St,27,2022-02-03,On-Street,0,1,37.7880287,-122.4388029,-122.4388029,37.7880287
221,San Francisco,SF-N20-2,Sanchez St at 17th St,19,2017-07-20,Off-Street,0,1,37.7632417,-122.4306746,-122.4306746,37.7632417
222,San Francisco,SF-M20,Sanchez St at 15th St,27,2017-08-28,On-Street,0,1,37.7662185,-122.4310597,-122.4310597,37.7662185
223,San Francisco,SF-I24,San Francisco Public Library (Grove St at Hyde St),31,2017-07-27,On-Street,1,1,37.7787677,-122.4159292,-122.4159292,37.7787677000001
224,San Francisco,SF-E29-1,San Francisco Ferry Building (Harry Bridges Plaza),38,2017-06-26,Off-Street,0,1,37.795392,-122.394203,-122.394203,37.795392
225,San Francisco,SF-I23-2,San Francisco City Hall (Polk St at Grove St),19,2017-06-19,Off-Street,1,1,37.77865,-122.41823,-122.41823,37.77865
226,San Francisco,SF-J29-3,San Francisco Caltrain Station (King St at 4th St),18,2017-06-29,Off-Street,0,1,37.77632882,-122.3944384,-122.3944384,37.7763288200001
227,San Francisco,SF-J29,San Francisco Caltrain (Townsend St at 4th St),19,2017-06-29,Off-Street,0,1,37.776598,-122.395282,-122.395282,37.776598
228,San Francisco,SF-G29-1,Salesforce Transit Center (Natoma St at 2nd St),35,2018-08-09,Off-Street,0,1,37.7874921,-122.3982847,-122.3982847,37.7874921000001
229,San Francisco,SF-J23-2,S Van Ness Ave at Market St,27,2017-06-29,Off-Street,0,1,37.774814,-122.418954,-122.418954,37.774814
230,San Francisco,SF-I29-2,S Park St at 3rd St,30,2017-07-28,On-Street,0,1,37.7807601,-122.3949894,-122.3949894,37.7807601000001
231,San Francisco,SF-AA18,Russia Ave at Madrid St,19,2023-09-13,On-Street,1,1,37.720038,-122.433823,-122.433823,37.720038
232,San Francisco,SF-N27,Rhode Island St at 17th St,19,2017-08-08,On-Street,0,1,37.7644783,-122.4025701,-122.4025701,37.7644783000001
233,San Francisco,SF-G19,Raymond Kimbell Playground,31,2017-08-09,On-Street,1,1,37.78381271,-122.4345589,-122.4345589,37.7838127100001
234,San Francisco,SF-U21,Randall St at Chenery St,19,2019-03-18,On-Street,0,1,37.73981272,-122.4255225,-122.4255225,37.73981272
235,San Francisco,SF-X29,Quesada Ave at 3rd St,19,2019-10-03,On-Street,1,1,37.73309281,-122.390973,-122.390973,37.7330928100001
236,San Francisco,SF-S24,Precita Park,15,2017-08-02,On-Street,0,1,37.7472996,-122.4114029,-122.4114029,37.7472996000001
237,San Francisco,SF-H26,Powell St BART Station (Market St at 5th St),35,2017-06-27,Off-Street,1,1,37.78389936,-122.4084449,-122.4084449,37.7838993600001
238,San Francisco,SF-G27,Powell St BART Station (Market St at 4th St),35,2017-06-26,Off-Street,0,1,37.78637527,-122.4049044,-122.4049044,37.7863752700001
239,San Francisco,SF-C25,Powell St at Columbus Ave,26,2019-11-15,On-Street,1,1,37.80049604,-122.410887,-122.410887,37.80049604
240,San Francisco,SF-R26,Potrero del Sol Park (25th St at Utah St),23,2018-10-18,On-Street,0,1,37.75179165,-122.4052155,-122.4052155,37.75179165
241,San Francisco,SF-N26,Potrero Ave at Mariposa St,27,2018-01-25,On-Street,0,1,37.76328094,-122.4073774,-122.4073774,37.7632809400001
242,San Francisco,SF-G20,Post St at Webster St,31,2020-02-06,On-Street,1,1,37.78535964,-122.4318016,-122.4318016,37.78535964
243,San Francisco,SF-F27,Post St at Kearny St,35,2017-06-26,On-Street,1,1,37.788975,-122.403452,-122.403452,37.7889750000001
244,San Francisco,SF-G18,Post St at Divisadero St,27,2019-10-01,On-Street,1,1,37.78437181,-122.439478,-122.439478,37.78437181
245,San Francisco,SF-G17,Post St at Baker St,27,2020-06-25,On-Street,1,1,37.783973,-122.442878,-122.442878,37.7839730000001
246,San Francisco,SF-GGP-01,Pompei Circle at JFK Dr,24,2023-08-01,On-Street,0,1,37.77290764,-122.4659313,-122.4659313,37.77290764
247,San Francisco,SF-F23,Polk St at Post St,21,2019-05-01,On-Street,1,1,37.78698223,-122.4200532,-122.4200532,37.78698223
248,San Francisco,SF-F23-2,Polk St at Bush St,23,2023-10-12,On-Street,1,1,37.78840986,-122.4203155,-122.4203155,37.7884098600001
249,San Francisco,SF-K20,Pierce St at Haight St,27,2018-03-06,On-Street,0,1,37.7717933,-122.4337079,-122.4337079,37.7717933000001
250,San Francisco,SF-D29,Pier 1/2 at The Embarcadero,23,2019-09-11,Off-Street,0,1,37.7963894,-122.3945855,-122.3945855,37.7963894000001
251,San Francisco,SF-J15,Parker Ave at McAllister St,27,2019-02-26,On-Street,0,1,37.77610091,-122.4530929,-122.4530929,37.77610091
252,San Francisco,SF-K19,Page St at Scott St,27,2017-08-08,On-Street,0,1,37.772406,-122.4356498,-122.4356498,37.772406
253,San Francisco,SF-K16,Page St at Masonic Ave,31,2021-01-11,On-Street,0,1,37.77113454,-122.4453413,-122.4453413,37.77113454
254,San Francisco,SF-K23,Otis St at Brady St,22,2020-01-16,On-Street,1,1,37.77230335,-122.419796,-122.419796,37.7723033500001
255,San Francisco,SF-Q3,Ortega St at 40th Ave,23,2023-03-08,On-Street,0,1,37.75147194,-122.4985575,-122.4985575,37.75147194
256,San Francisco,SF-J22-1,Octavia Blvd at Page St,27,2019-04-09,On-Street,0,1,37.77401794,-122.4238086,-122.4238086,37.7740179400001
257,San Francisco,SF-V28,Oakdale Ave at Phelps St,19,2019-09-26,On-Street,0,1,37.73685162,-122.3942506,-122.3942506,37.73685162
258,San Francisco,SF-H16,O'Farrell St at Masonic Ave,27,2019-11-07,On-Street,0,1,37.78113055,-122.4473745,-122.4473745,37.7811305500001
259,San Francisco,SF-H18,O'Farrell St at Divisadero St,27,2017-08-03,On-Street,1,1,37.7824046,-122.4394459,-122.4394459,37.7824046000001
260,San Francisco,SF-A25,North Point St at Powell St,28,2021-03-25,On-Street,1,1,37.80691269,-122.4115359,-122.4115359,37.80691269
261,San Francisco,SF-A22,North Point St at Polk St,35,2021-03-24,On-Street,0,1,37.80540168,-122.4231897,-122.4231897,37.80540168
262,San Francisco,SF-A26,North Point St at Grant St,19,2021-03-26,On-Street,1,1,37.80721442,-122.4091741,-122.4091741,37.80721442
263,San Francisco,SF-G28-2,Natoma St at New Montgomery St,21,2019-08-01,On-Street,0,1,37.78655306,-122.399607,-122.399607,37.7865530600001
264,San Francisco,SF-G23,Myrtle St at Polk St,27,2018-10-25,On-Street,1,1,37.78543383,-122.4196216,-122.4196216,37.78543383
265,San Francisco,SF-F28-2,Montgomery St BART Station (Market St at 2nd St),41,2017-06-27,Off-Street,0,1,37.7896254,-122.400811,-122.400811,37.7896254
266,San Francisco,SF-D27-2,Montgomery St at Pacific Ave,15,2022-01-25,On-Street,1,1,37.79719414,-122.4036248,-122.4036248,37.79719414
267,San Francisco,SF-GGP-02,MLK Dr at 7th Ave,27,2023-08-02,On-Street,0,1,37.76661409,-122.4642112,-122.4642112,37.7666140900001
268,San Francisco,SF-N29,Mississippi St at 17th St,31,2017-08-15,On-Street,0,1,37.7648022,-122.3947713,-122.3947713,37.7648022000001
269,San Francisco,SF-O22,Mission Playground,23,2017-07-27,On-Street,0,1,37.7592103,-122.4213392,-122.4213392,37.7592103000001
270,San Francisco,SF-O21,Mission Dolores Park,27,2017-07-28,On-Street,0,1,37.7614205,-122.4264353,-122.4264353,37.7614205
271,San Francisco,SF-L29,Mission Bay Kids Park,25,2018-06-08,On-Street,0,1,37.77230063,-122.3930275,-122.3930275,37.7723006300001
272,San Francisco,SF-H26-2,Mint St at Mission St,15,2019-08-15,On-Street,1,1,37.78227953,-122.407313,-122.407313,37.78227953
273,San Francisco,SF-F28-1,Mechanics Monument Plaza (Market St at Bush St),23,2017-06-26,Off-Street,1,1,37.7913,-122.399051,-122.399051,37.7913
274,San Francisco,SF-W29,McKinnon Ave at 3rd St,23,2019-09-26,On-Street,1,1,37.73629587,-122.3899698,-122.3899698,37.73629587
275,San Francisco,SF-K22-2,McCoppin St at Valencia St,19,2017-07-18,On-Street,1,1,37.77166246,-122.4224232,-122.4224232,37.7716624600001
276,San Francisco,SF-J17,McAllister St at Baker St,27,2017-08-16,On-Street,0,1,37.7774157,-122.4418376,-122.4418376,37.7774157000001
277,San Francisco,SF-J13,McAllister St at Arguello Blvd,19,2019-09-18,On-Street,0,1,37.77521367,-122.458334,-122.458334,37.77521367
278,San Francisco,SF-I16,Masonic Ave at Turk St,23,2018-12-12,Off-Street,0,1,37.77904666,-122.4472913,-122.4472913,37.7790466600001
279,San Francisco,SF-A15,Mason St at Halleck St,21,2022-07-14,On-Street,0,1,37.803968,-122.455079,-122.455079,37.8039680000001
280,San Francisco,SF-A25-2,Mason St at Bay St,21,2023-07-24,On-Street,1,1,37.805454,-122.413668,-122.413668,37.8054540000001
281,San Francisco,SF-E29-2,Market St at Steuart St,27,2017-07-10,On-Street,0,1,37.79449745,-122.394838,-122.394838,37.7944974500001
282,San Francisco,SF-K22-1,Market St at Franklin St,35,2017-08-14,On-Street,0,1,37.77379321,-122.421239,-122.421239,37.7737932100001
283,San Francisco,SF-L21,Market St at Dolores St,19,2017-07-14,On-Street,0,1,37.7693053,-122.4268256,-122.4268256,37.7693053
284,San Francisco,SF-J23-1,Market St at 10th St,31,2017-06-29,On-Street,1,1,37.776619,-122.417385,-122.417385,37.776619
285,San Francisco,SF-C14,MacArthur Ave at Fernandez St,19,2022-02-09,Off-Street,0,1,37.79658767,-122.4556995,-122.4556995,37.7965876700001
286,San Francisco,SF-H28-2,Mabini St at Folsom St,35,2023-04-19,On-Street,1,1,37.78241462,-122.4002,-122.4002,37.7824146200001
287,San Francisco,SF-C16-2,Lyon St at Lombard St,27,2022-02-02,Off-Street,0,1,37.79822297,-122.4474224,-122.4474224,37.79822297
288,San Francisco,SF-K17,Lyon St at Fell St,31,2017-08-11,On-Street,0,1,37.77331088,-122.4442926,-122.4442926,37.7733108800001
289,San Francisco,SF-P1,Lower Great Highway at Noriega St,19,2023-03-07,On-Street,0,1,37.75300469,-122.5085403,-122.5085403,37.7530046900001
290,San Francisco,SF-BB17,London St at Geneva Ave,16,2020-10-02,Off-Street,1,1,37.71617245,-122.4401061,-122.4401061,37.71617245
291,San Francisco,SF-B25,Lombard St at Columbus Ave,19,2018-10-11,On-Street,0,1,37.80274615,-122.4135786,-122.4135786,37.8027461500001
292,San Francisco,SF-B14,Lincoln Blvd at Graham St,22,2022-02-11,Off-Street,0,1,37.8017501,-122.4563634,-122.4563634,37.8017501
293,San Francisco,SF-D24,Leavenworth St at Broadway,19,2019-02-27,On-Street,0,1,37.79647069,-122.4168576,-122.4168576,37.79647069
294,San Francisco,SF-F16,Laurel St at California St,23,2020-03-06,On-Street,0,1,37.786692,-122.450081,-122.450081,37.7866920000001
295,San Francisco,SF-F23-3,Larkin St at California St,23,2023-10-19,On-Street,0,1,37.79058834,-122.4189329,-122.4189329,37.7905883400001
296,San Francisco,SF-X30,Lane St at Revere Ave,19,2018-09-20,On-Street,1,1,37.73172669,-122.3900557,-122.3900557,37.7317266900001
297,San Francisco,SF-J21,Laguna St at Hayes St,27,2017-08-07,On-Street,0,1,37.776307,-122.426188,-122.426188,37.776307
298,San Francisco,SF-I21,Laguna St at Grove St,31,2020-07-23,On-Street,0,1,37.77756937,-122.4265691,-122.4265691,37.77756937
299,San Francisco,SF-E21,Lafayette Park (Laguna St at Washington St),27,2022-01-31,Off-Street,0,1,37.79199759,-122.4293055,-122.4293055,37.7919975900001
300,San Francisco,SF-M1,La Playa St at Lincoln Way,23,2023-02-21,Off-Street,0,1,37.763874,-122.509526,-122.509526,37.763874
301,San Francisco,SF-K21,Koshland Park,27,2017-08-11,On-Street,0,1,37.77344259,-122.4271575,-122.4271575,37.7734425900001
302,San Francisco,SF-X14,Judson Ave at Gennessee St,27,2019-06-04,On-Street,0,1,37.72828159,-122.450695,-122.450695,37.7282815900001
303,San Francisco,SF-G25,Jones St at Post St,19,2018-10-24,On-Street,1,1,37.78732677,-122.4132782,-122.4132782,37.78732677
304,San Francisco,SF-GGP-05,JFK Dr at the Great Highway,23,2023-07-26,On-Street,0,1,37.77047895,-122.5105939,-122.5105939,37.77047895
305,San Francisco,SF-R20,Jersey St at Church St,19,2017-08-03,On-Street,0,1,37.7509004,-122.4274114,-122.4274114,37.7509004
306,San Francisco,SF-R19,Jersey St at Castro St,19,2017-08-03,On-Street,0,1,37.750506,-122.4339496,-122.4339496,37.750506
307,San Francisco,SF-V29,Jerrold Ave at 3rd St,19,2018-09-20,On-Street,1,1,37.73857187,-122.3896178,-122.3896178,37.73857187
308,San Francisco,SF-Y30,Jennings St at Revere Ave,19,2019-09-17,On-Street,1,1,37.72939321,-122.3865366,-122.3865366,37.7293932100001
309,San Francisco,SF-D27-3,Jackson St at Sansome St,30,2023-11-02,On-Street,1,1,37.79672497,-122.4016582,-122.4016582,37.7967249700001
310,San Francisco,SF-E23,Jackson St at Polk St,27,2019-03-20,Off-Street,0,1,37.79416044,-122.4215676,-122.4215676,37.79416044
311,San Francisco,SF-N28,Jackson Playground,27,2017-08-05,On-Street,0,1,37.7650259,-122.3987734,-122.3987734,37.7650259000001
312,San Francisco,SF-M8,Irving St at 21st Ave,19,2022-03-24,On-Street,0,1,37.76352971,-122.4796474,-122.4796474,37.7635297100001
313,San Francisco,SF-M9,Irving St at 17th Ave,27,2022-03-23,On-Street,0,1,37.76373248,-122.4752204,-122.4752204,37.76373248
314,San Francisco,SF-S29,Indiana St at Cesar Chavez St,15,2019-03-05,Off-Street,0,1,37.75043436,-122.3904473,-122.3904473,37.75043436
315,San Francisco,SF-S30,Illinois St at Cesar Chavez St,19,2019-04-11,On-Street,0,1,37.75016714,-122.386542,-122.386542,37.75016714
316,San Francisco,SF-O30-2,Illinois St at 20th St,23,2019-04-17,On-Street,0,1,37.76045756,-122.3875397,-122.3875397,37.7604575600001
317,San Francisco,SF-G24,Hyde St at Post St,27,2018-10-31,On-Street,1,1,37.7870936,-122.4167007,-122.4167007,37.7870936
318,San Francisco,SF-V30-1,Hudson Ave at 3rd St,15,2018-09-20,On-Street,0,1,37.74058873,-122.3890887,-122.3890887,37.7405887300001
319,San Francisco,SF-M28,Hubbell St at 16th St,27,2018-04-17,On-Street,0,1,37.7664827,-122.3982793,-122.3982793,37.7664827
320,San Francisco,SF-K24-2,Howard St at Grace St,12,2022-03-17,On-Street,1,1,37.7744952,-122.413905,-122.413905,37.7744952
321,San Francisco,SF-F29,Howard St at Beale St,31,2017-06-23,On-Street,0,1,37.789756,-122.394643,-122.394643,37.7897560000001
322,San Francisco,SF-J25,Howard St at 8th St,27,2017-08-11,On-Street,1,1,37.7765126,-122.4113061,-122.4113061,37.7765126
323,San Francisco,SF-I26,Howard St at 6th St,27,2018-05-11,On-Street,1,1,37.780304,-122.406609,-122.406609,37.7803040000001
324,San Francisco,SF-G28-1,Howard St at 2nd St,18,2017-06-15,On-Street,0,1,37.7864661,-122.3987161,-122.3987161,37.7864661
325,San Francisco,SF-N30,Hospital St at Mariposa St,27,2022-01-28,On-Street,0,1,37.76486083,-122.390873,-122.390873,37.76486083
326,San Francisco,SF-Z7,Holloway Ave at Arellano Ave,31,2020-09-17,On-Street,1,1,37.72095,-122.478859,-122.478859,37.7209500000001
327,San Francisco,SF-V32,Heron's Head Park,27,2019-09-18,On-Street,0,1,37.74032178,-122.3767841,-122.3767841,37.74032178
328,San Francisco,SF-P24,Harrison St at 20th St,19,2017-08-04,On-Street,0,1,37.758862,-122.412544,-122.412544,37.7588620000001
329,San Francisco,SF-N24-2,Harrison St at 17th St,19,2017-07-17,On-Street,0,1,37.7638471,-122.4130036,-122.4130036,37.7638471000001
330,San Francisco,SF-L24-2,Harrison St at 14th St,19,2022-11-10,On-Street,0,1,37.76880653,-122.4134982,-122.4134982,37.7688065300001
331,San Francisco,SF-K17-2,Haight St at Lyon St,12,2020-08-20,Off-Street,0,1,37.770519,-122.442326,-122.442326,37.770519
332,San Francisco,SF-S22-2,Guerrero Park,15,2018-11-06,On-Street,0,1,37.7457388,-122.4221402,-122.4221402,37.7457388
333,San Francisco,SF-J16,Grove St at Masonic Ave,31,2018-10-19,On-Street,0,1,37.77483629,-122.4465457,-122.4465457,37.7748362900001
334,San Francisco,SF-J22-2,Grove St at Gough St,25,2019-10-09,On-Street,0,1,37.77787007,-122.422953,-122.422953,37.7778700700001
335,San Francisco,SF-J18,Grove St at Divisadero,27,2017-08-11,On-Street,0,1,37.775946,-122.4377775,-122.4377775,37.775946
336,San Francisco,SF-C20,Greenwich St at Webster St,19,2019-05-08,On-Street,0,1,37.79920793,-122.4341217,-122.4341217,37.7992079300001
337,San Francisco,SF-B21,Greenwich St at Franklin St,27,2019-11-08,On-Street,0,1,37.80029941,-122.4257839,-122.4257839,37.80029941
338,San Francisco,SF-C22,Green St at Van Ness Ave,23,2020-03-06,On-Street,0,1,37.79762791,-122.423535,-122.423535,37.7976279100001
339,San Francisco,SF-H0,Great Hwy at Balboa St,27,2020-09-30,On-Street,0,1,37.775211,-122.511208,-122.511208,37.7752110000001
340,San Francisco,SF-F26-2,Grant St at Sutter St,33,2022-05-25,On-Street,1,1,37.78970985,-122.4054839,-122.4054839,37.7897098500001
341,San Francisco,SF-I23-1,Golden Gate Ave at Polk St,31,2017-06-21,On-Street,1,1,37.78136135,-122.41853,-122.41853,37.7813613500001
342,San Francisco,SF-I22,Golden Gate Ave at Franklin St,31,2019-01-03,On-Street,1,1,37.78080573,-122.4219061,-122.4219061,37.7808057300001
343,San Francisco,SF-Y25,Goettingen St at Bacon St,23,2019-03-06,On-Street,1,1,37.72694297,-122.4065995,-122.4065995,37.72694297
344,San Francisco,SF-W19,Glen Park BART Station,40,2019-04-05,Off-Street,0,1,37.7328128,-122.4341404,-122.4341404,37.7328128
345,San Francisco,SF-W14,Gennessee St at Monterey Blvd,15,2019-06-04,Off-Street,0,1,37.73165669,-122.4511215,-122.4511215,37.7316566900001
346,San Francisco,SF-R24,Garfield Square (25th St at Harrison St),23,2017-09-25,On-Street,1,1,37.7510171,-122.4119009,-122.4119009,37.7510171000001
347,San Francisco,SF-M10,Funston Ave at Irving St,27,2020-01-10,On-Street,0,1,37.76393403,-122.4706507,-122.4706507,37.76393403
348,San Francisco,SF-J10,Funston Ave at Fulton St,27,2019-11-21,On-Street,0,1,37.773587,-122.471357,-122.471357,37.7735870000001
349,San Francisco,SF-G10-1,Funston Ave at Clement St,27,2019-11-14,On-Street,0,1,37.78244164,-122.4719874,-122.4719874,37.7824416400001
350,San Francisco,SF-E28-2,Front St at California St,32,2020-07-23,On-Street,1,1,37.793177,-122.398823,-122.398823,37.7931770000001
351,San Francisco,SF-Y14,Frida Kahlo Way at Cloud Cir,23,2019-12-18,On-Street,0,1,37.72588979,-122.4524438,-122.4524438,37.7258897900001
352,San Francisco,SF-M13,Frederick St at Arguello Blvd,19,2019-12-12,On-Street,0,1,37.76578299,-122.4576366,-122.4576366,37.76578299
353,San Francisco,SF-N25,Franklin Square,19,2017-08-04,On-Street,0,1,37.764555,-122.410345,-122.410345,37.764555
354,San Francisco,SF-A24-2,Francisco St at Columbus Ave,27,2023-03-09,On-Street,1,1,37.80445378,-122.4157938,-122.4157938,37.8044537800001
355,San Francisco,SF-Z6,Font Blvd at Arballo Dr,30,2020-09-17,On-Street,1,1,37.722001,-122.482735,-122.482735,37.722001
356,San Francisco,SF-F30-3,Folsom St at Main St,28,2022-08-31,On-Street,0,1,37.788991,-122.3922551,-122.3922551,37.7889910000001
357,San Francisco,SF-O24,Folsom St at 19th St,19,2017-07-31,On-Street,0,1,37.7605936,-122.4148171,-122.4148171,37.7605936
358,San Francisco,SF-M24,Folsom St at 15th St,19,2018-07-17,On-Street,0,1,37.7670373,-122.4154425,-122.4154425,37.7670373
359,San Francisco,SF-L24,Folsom St at 13th St,27,2018-06-14,On-Street,0,1,37.769757,-122.415674,-122.415674,37.769757
360,San Francisco,SF-K25,Folsom St at 9th St,27,2017-09-28,On-Street,1,1,37.7737172,-122.4116467,-122.4116467,37.7737172000001
361,San Francisco,SF-J26-2,Folsom St at 7th St,19,2017-11-27,On-Street,1,1,37.77666378,-122.4079084,-122.4079084,37.77666378
362,San Francisco,SF-I27,Folsom St at 5th St,31,2017-06-16,On-Street,1,1,37.78064509,-122.4028659,-122.4028659,37.7806450900001
363,San Francisco,SF-H28,Folsom St at 3rd St,35,2018-06-21,On-Street,0,1,37.78383,-122.39887,-122.39887,37.7838300000001
364,San Francisco,SF-A19,Fillmore St at Jefferson St,27,2020-10-16,On-Street,0,1,37.805376,-122.437261,-122.437261,37.805376
365,San Francisco,SF-K15-,Fell St at Stanyan St,19,2018-11-08,On-Street,0,1,37.7719511,-122.4537048,-122.4537048,37.7719511
366,San Francisco,SF-K15-2,Fell St at Clayton St,27,2024-01-24,On-Street,0,1,37.77256103,-122.4489073,-122.4489073,37.7725610300001
367,San Francisco,SF-H25,Father Alfred E Boeddeker Park,23,2017-07-17,On-Street,1,1,37.7839879,-122.412408,-122.412408,37.7839879000001
368,San Francisco,SF-U30,Evans Ave at Newhall St,19,2020-02-07,On-Street,0,1,37.74207524,-122.3866023,-122.3866023,37.7420752400001
369,San Francisco,SF-V31,Evans Ave at Mendell St,15,2019-10-03,On-Street,0,1,37.74017754,-122.3837364,-122.3837364,37.74017754
370,San Francisco,SF-O18,Eureka Valley Recreation Center,19,2017-10-27,On-Street,0,1,37.7591769,-122.4369431,-122.4369431,37.7591769000001
371,San Francisco,SF-W8,Eucalyptus Dr at 20th Ave,27,2020-09-24,On-Street,1,1,37.731085,-122.476163,-122.476163,37.7310850000001
372,San Francisco,SF-O30,Esprit Park,31,2017-08-08,On-Street,0,1,37.7616343,-122.3906477,-122.3906477,37.7616343
373,San Francisco,SF-E29-3,Embarcadero BART Station (Beale St at Market St),29,2017-06-22,On-Street,0,1,37.792251,-122.397086,-122.397086,37.7922510000001
374,San Francisco,SF-H19,Ellis St at Pierce St,27,2019-10-04,On-Street,1,1,37.78198169,-122.4357699,-122.4357699,37.7819816900001
375,San Francisco,SF-AA28,Egbert Ave at Jennings St,19,2019-11-21,On-Street,1,1,37.7225456,-122.3928173,-122.3928173,37.7225456
376,San Francisco,SF-L19,Duboce Park,19,2017-07-12,On-Street,0,1,37.7692005,-122.4338119,-122.4338119,37.7692005000001
377,San Francisco,SF-Q21-1,Dolores St at 22nd St,15,2019-01-15,On-Street,0,1,37.75488392,-122.4256487,-122.4256487,37.7548839200001
378,San Francisco,SF-M21,Dolores St at 15th St,19,2017-07-21,On-Street,0,1,37.7662102,-122.4266136,-122.4266136,37.7662102
379,San Francisco,SF-L26,Division St at Potrero Ave,27,2017-08-15,On-Street,0,1,37.76921786,-122.4076456,-122.4076456,37.76921786
380,San Francisco,SF-C18,Divisadero St at Lombard St,22,2022-04-27,On-Street,0,1,37.79923418,-122.4427812,-122.4427812,37.79923418
381,San Francisco,SF-E18,Divisadero St at Clay St,19,2020-02-27,On-Street,0,1,37.789688,-122.440688,-122.440688,37.7896880000001
382,San Francisco,SF-X16,Detroit St at Hearst St,19,2022-04-28,On-Street,0,1,37.73065543,-122.4443048,-122.4443048,37.7306554300001
383,San Francisco,SF-Z16,Delano Ave at Oneida Ave,24,2020-07-22,Off-Street,0,1,37.7223823,-122.4438098,-122.4438098,37.7223823
384,San Francisco,SF-H30-2,Delancey St at Brannan St,27,2023-04-12,On-Street,0,1,37.78384422,-122.3900021,-122.3900021,37.78384422
385,San Francisco,SF-D28,Davis St at Jackson St,35,2017-06-13,On-Street,0,1,37.79728,-122.398436,-122.398436,37.7972800000001
386,San Francisco,SF-G26,Cyril Magnin St at Ellis St,35,2017-06-16,On-Street,1,1,37.78588063,-122.408915,-122.408915,37.7858806300001
387,San Francisco,SF-B28,Cruise Terminal at Pier 27,23,2019-09-12,Off-Street,0,1,37.804648,-122.402087,-122.402087,37.804648
388,San Francisco,SF-CC18,Crocker-Amazon Playground,23,2023-09-12,On-Street,0,1,37.713185,-122.433405,-122.433405,37.7131850000001
389,San Francisco,SF-E27,Commercial St at Montgomery St,23,2017-06-26,On-Street,1,1,37.794231,-122.402923,-122.402923,37.794231
390,San Francisco,SF-G5,Clement St at 32nd Ave,23,2020-03-04,On-Street,1,1,37.781722,-122.492844,-122.492844,37.7817220000001
391,San Francisco,SF-F17,Clay St at Lyon St,23,2022-10-26,On-Street,0,1,37.7892792,-122.4450687,-122.4450687,37.7892792000001
392,San Francisco,SF-E28,Clay St at Battery St,31,2017-06-14,On-Street,0,1,37.795001,-122.39997,-122.39997,37.7950010000001
393,San Francisco,SF-I25,Civic Center/UN Plaza BART Station (Market St at McAllister St),31,2017-06-19,Off-Street,1,1,37.7810737,-122.4117382,-122.4117382,37.7810737
394,San Francisco,SF-L20,Church St at Duboce Ave,27,2017-07-12,On-Street,0,1,37.7700831,-122.4291557,-122.4291557,37.7700831000001
395,San Francisco,SF-K30-2,China Basin St at 3rd St,31,2019-01-09,On-Street,0,1,37.7719996,-122.3899698,-122.3899698,37.7719996000001
396,San Francisco,SF-B22,Chestnut St at Van Ness Ave,23,2019-09-24,On-Street,0,1,37.80228839,-122.4245086,-122.4245086,37.8022883900001
397,San Francisco,SF-S21,Cesar Chavez St at Dolores St,15,2017-08-03,On-Street,0,1,37.7478584,-122.4249863,-122.4249863,37.7478584
398,San Francisco,SF-Z28,Carroll Ave at 3rd St,23,2019-09-19,On-Street,1,1,37.72558949,-122.3945977,-122.3945977,37.7255894900001
399,San Francisco,SF-M15,Carl St at Cole St,23,2019-06-17,On-Street,0,1,37.76591021,-122.4492574,-122.4492574,37.7659102100001
400,San Francisco,SF-A20,Buchanan St at North Point St,28,2019-03-09,Off-Street,0,1,37.80427202,-122.4335369,-122.4335369,37.80427202
401,San Francisco,SF-B20,Buchanan St at Lombard St,23,2023-12-01,On-Street,0,1,37.800494,-122.432759,-122.432759,37.8004940000001
402,San Francisco,SF-J27,Bryant St at 6th St,28,2017-06-16,On-Street,0,1,37.77586038,-122.4026939,-122.4026939,37.77586038
403,San Francisco,SF I29-1,Bryant St at 2nd St,27,2018-03-08,On-Street,0,1,37.78317199,-122.393572,-122.393572,37.78317199
404,San Francisco,SF-K18,Broderick St at Oak St,27,2017-08-09,On-Street,0,1,37.7730627,-122.4390777,-122.4390777,37.7730627
405,San Francisco,SF-C26-1,Broadway at Kearny St,19,2017-06-26,On-Street,1,1,37.79801364,-122.4059504,-122.4059504,37.7980136400001
406,San Francisco,SF-C28-2,Broadway at Battery St,19,2017-06-13,On-Street,0,1,37.79857211,-122.400869,-122.400869,37.7985721100001
407,San Francisco,SF-Z13,Brighton Ave at Ocean Ave,19,2022-02-18,On-Street,0,1,37.72349898,-122.4550982,-122.4550982,37.72349898
408,San Francisco,SF-AA20,Brazil Ave at La Grande Ave,19,2023-09-14,On-Street,1,1,37.72024,-122.425312,-122.425312,37.72024
409,San Francisco,SF-K27-3,Brannan St at Harriet St,28,2023-04-11,On-Street,0,1,37.774256,-122.40185,-122.40185,37.774256
410,San Francisco,SF-I30-2,Brannan St at Colin P Kelly Jr St,35,2019-10-15,On-Street,0,1,37.78238579,-122.3913431,-122.3913431,37.78238579
411,San Francisco,SF-K27-2,Brannan St at 7th St,24,2019-10-31,On-Street,0,1,37.77243632,-122.4039026,-122.4039026,37.7724363200001
412,San Francisco,SF-J28-2,Brannan St at 4th St,19,2019-09-05,On-Street,0,1,37.77793367,-122.3969731,-122.3969731,37.77793367
413,San Francisco,SF-L28,Berry St at King St,23,2018-06-26,On-Street,0,1,37.77176211,-122.3984376,-122.3984376,37.7717621100001
414,San Francisco,SF-K29-1,Berry St at 4th St,35,2017-06-16,On-Street,0,1,37.77588,-122.39317,-122.39317,37.77588
415,San Francisco,SF-G30-1,Beale St at Harrison St,23,2017-08-10,On-Street,0,1,37.7880593,-122.3918648,-122.3918648,37.7880593
416,San Francisco,SF-B19,Bay St at Fillmore St,27,2019-03-06,On-Street,0,1,37.80263595,-122.4362889,-122.4362889,37.80263595
417,San Francisco,SF-B28-2,Battery St at Filbert St,31,2020-01-09,On-Street,0,1,37.80219785,-122.4017715,-122.4017715,37.80219785
418,San Francisco,SF-AA15-2,Balboa Park BART Station 2,19,2023-10-11,Off-Street,0,1,37.72091386,-122.4476572,-122.4476572,37.7209138600001
419,San Francisco,SF-AA15,Balboa Park BART Station,25,2019-05-03,Off-Street,0,1,37.72055499,-122.4477232,-122.4477232,37.72055499
420,San Francisco,SF-Y16,Balboa Park (San Jose Ave at Sgt. John V. Young Ln),23,2022-02-15,On-Street,0,1,37.72483723,-122.4432981,-122.4432981,37.72483723
421,San Francisco,SF-W19-2,Arlington St at Roanoke St,19,2020-06-29,On-Street,0,1,37.734966,-122.429772,-122.429772,37.734966
422,San Francisco,SF-G13,Arguello Blvd at Geary Blvd,19,2019-09-20,Off-Street,0,1,37.78146762,-122.458806,-122.458806,37.7814676200001
423,San Francisco,SF-H13,Arguello Blvd at Edward St,19,2019-11-14,On-Street,0,1,37.77848699,-122.4586451,-122.4586451,37.77848699
424,San Francisco,SF-H15,Anza St at Collins St,29,2020-02-05,On-Street,0,1,37.78068,-122.450012,-122.450012,37.7806800000001
425,San Francisco,SF-G8,Anza St at 19th Ave,19,2020-06-04,On-Street,0,1,37.77855735,-122.4779898,-122.4779898,37.77855735
426,San Francisco,SF-C21,Allyne Park (Green St at Gough St),19,2020-10-16,Off-Street,0,1,37.797249,-122.427457,-122.427457,37.7972490000001
427,San Francisco,SF-X19,Alemany Blvd at Silver Ave,19,2020-07-22,On-Street,0,1,37.7301745,-122.4328959,-122.4328959,37.7301745
428,San Francisco,SF-Z17,Alemany Blvd at Ocean Ave,15,2023-09-07,On-Street,0,1,37.7232648,-122.4378259,-122.4378259,37.7232648
429,San Francisco,SF-Y18,Alemany Blvd at Francis St,23,2022-02-22,On-Street,0,1,37.7273954,-122.4355133,-122.4355133,37.7273954
430,San Francisco,SF-J19,Alamo Square (Steiner St at Fulton St),23,2019-01-31,On-Street,0,1,37.77754677,-122.4332741,-122.4332741,37.7775467700001
431,San Francisco,SF-M26-2,Alameda St at Henry Adams St,23,2020-03-05,On-Street,0,1,37.76854574,-122.4044028,-122.4044028,37.76854574
432,San Francisco,SF-J1,48th Ave at Cabrillo St,23,2020-03-19,Off-Street,0,1,37.772954,-122.509071,-122.509071,37.772954
433,San Francisco,SF-P2,45th Ave at Noriega St,19,2023-03-01,On-Street,0,1,37.752809,-122.504261,-122.504261,37.7528090000001
434,San Francisco,SF-O2,43rd Ave at Lawton St,21,2023-03-02,On-Street,0,1,37.75699964,-122.502551,-122.502551,37.7569996400001
435,San Francisco,SF-M3,41st Ave at Irving St,19,2023-02-14,On-Street,0,1,37.7626492,-122.5007785,-122.5007785,37.7626492000001
436,San Francisco,SF-J3,38th Ave at Balboa St,18,2020-06-29,On-Street,0,1,37.775522,-122.498498,-122.498498,37.7755220000001
437,San Francisco,SF-Q4,37th Ave at Ortega St,19,2023-04-05,On-Street,0,1,37.75173717,-122.4956,-122.4956,37.7517371700001
438,San Francisco,SF-GGP-04,36th Ave at Spreckles Lake Dr,27,2023-08-23,On-Street,0,1,37.771589,-122.495772,-122.495772,37.7715890000001
439,San Francisco,SF-N4,36th Ave at Kirkham St,19,2023-02-15,On-Street,0,1,37.7589001,-122.4951291,-122.4951291,37.7589001000001
440,San Francisco,SF-M4,36th Ave at Irving St,23,2023-02-09,On-Street,0,1,37.7628993,-122.4953893,-122.4953893,37.7628993000001
441,San Francisco,SF-J5,34th Ave at Balboa St,19,2020-06-04,On-Street,0,1,37.77575,-122.494052,-122.494052,37.7757500000001
442,San Francisco,SF-T21,30th St at San Jose Ave,15,2017-08-28,On-Street,0,1,37.7423139,-122.4231805,-122.4231805,37.7423139000001
443,San Francisco,SF-P6,30th Ave at Noriega St,19,2023-02-08,On-Street,0,1,37.7539295,-122.4883438,-122.4883438,37.7539295
444,San Francisco,SF-T22,29th St at Tiffany Ave,19,2017-08-04,On-Street,0,1,37.7440667,-122.4214722,-122.4214722,37.7440667000001
445,San Francisco,SF-T20,29th St at Church St,15,2017-08-07,On-Street,0,1,37.7436839,-122.4268059,-122.4268059,37.7436839000001
446,San Francisco,SF-P7,26th Ave at Noriega St,15,2023-02-02,On-Street,0,1,37.7540396,-122.4840403,-122.4840403,37.7540396000001
447,San Francisco,SF-G6,26th Ave at Clement St,16,2020-06-26,On-Street,1,1,37.78175809,-122.4860287,-122.4860287,37.78175809
448,San Francisco,SF-M7,25th Ave at Irving St,19,2022-03-25,On-Street,0,1,37.76346753,-122.4835343,-122.4835343,37.7634675300001
449,San Francisco,SF-Q23-3,24th St BART,20,2019-02-07,Off-Street,1,1,37.75199174,-122.41898,-122.41898,37.7519917400001
450,San Francisco,SF-Q21-2,24th St at Chattanooga St,19,2017-08-03,On-Street,0,1,37.7518194,-122.4266139,-122.4266139,37.7518194
451,San Francisco,SF-Q30,23rd St at Tennessee St,31,2018-06-26,On-Street,0,1,37.75536713,-122.388795,-122.388795,37.75536713
452,San Francisco,SF-Q26,23rd St at San Bruno Ave,15,2018-07-19,Off-Street,0,1,37.7545219,-122.4040388,-122.4040388,37.7545219
453,San Francisco,SF-G7,23rd Ave at Clement St,19,2020-03-19,On-Street,0,1,37.78199,-122.482807,-122.482807,37.7819900000001
454,San Francisco,SF-P30,22nd St Caltrain Station,31,2017-10-11,On-Street,0,1,37.75770404,-122.3918849,-122.3918849,37.7577040400001
455,San Francisco,SF-P26,22nd St at Potrero Ave,15,2020-03-18,Off-Street,0,1,37.756808,-122.405943,-122.405943,37.756808
456,San Francisco,SF-P8,21st Ave at Noriega St,15,2023-02-01,On-Street,0,1,37.7543047,-122.4785927,-122.4785927,37.7543047
457,San Francisco,SF-P21,20th St at Dolores St,27,2018-11-13,On-Street,0,1,37.75823842,-122.4260938,-122.4260938,37.7582384200001
458,San Francisco,SF-O25-2,20th St at Bryant St,15,2017-07-27,On-Street,0,1,37.7592005,-122.409851,-122.409851,37.7592005000001
459,San Francisco,SF-O23,19th St at Mission St,19,2017-07-19,On-Street,0,1,37.760278,-122.419074,-122.419074,37.760278
460,San Francisco,SF-O25-1,19th St at Florida St,19,2017-08-16,On-Street,0,1,37.7604469,-122.410807,-122.410807,37.7604469
461,San Francisco,SF-O19,18th St at Noe St,15,2017-07-28,On-Street,0,1,37.7610471,-122.4326417,-122.4326417,37.7610471
462,San Francisco,SF-F9,18th Ave at California St,23,2020-03-04,On-Street,0,1,37.785111,-122.477667,-122.477667,37.785111
463,San Francisco,SF-N22-2,17th St at Valencia St,23,2017-07-14,On-Street,0,1,37.7633158,-122.4219039,-122.4219039,37.7633158
464,San Francisco,SF-N21,17th St at Dolores St,23,2017-07-14,On-Street,0,1,37.7630152,-122.4264968,-122.4264968,37.7630152
465,San Francisco,SF-G9,17th Ave at Geary Blvd,23,2019-11-07,Off-Street,0,1,37.78071989,-122.4761036,-122.4761036,37.7807198900001
466,San Francisco,SF-N23,17th & Folsom Street Park (17th St at Folsom St),23,2017-08-02,On-Street,0,1,37.7637085,-122.4152042,-122.4152042,37.7637085000001
467,San Francisco,SF-N22-1B,16th St Mission BART Station 2,19,2017-09-21,Off-Street,1,1,37.76476522,-122.420091,-122.420091,37.7647652200001
468,San Francisco,SF-N22-1A,16th St Mission BART,11,2017-09-21,Off-Street,1,1,37.76471009,-122.4199569,-122.4199569,37.7647100900001
469,San Francisco,SF-N20-1,16th St at Prosper St,19,2017-08-16,On-Street,0,1,37.764285,-122.4318042,-122.4318042,37.764285
470,San Francisco,SF-M26,15th St at Potrero Ave,27,2017-08-08,On-Street,0,1,37.7670785,-122.4073586,-122.4073586,37.7670785
471,San Francisco,SF-M22-1,14th St at Mission St,19,2017-07-18,On-Street,1,1,37.7682646,-122.4201102,-122.4201102,37.7682646000001
472,San Francisco,SF-G10-2,14th Ave at Geary Blvd,27,2019-10-25,On-Street,0,1,37.78047126,-122.4728233,-122.4728233,37.7804712600001
473,San Francisco,SF-K24,11th St at Natoma St,19,2017-08-10,On-Street,1,1,37.7735069,-122.4160402,-122.4160402,37.7735069
474,San Francisco,SF-L25,11th St at Bryant St,27,2017-08-14,On-Street,0,1,37.7700298,-122.4117258,-122.4117258,37.7700298
475,San Francisco,SF-M11,10th Ave at Irving St,23,2020-01-09,On-Street,0,1,37.76409093,-122.4673784,-122.4673784,37.7640909300001
476,San Francisco,SF-G11,9th Ave at Geary Blvd,27,2019-11-18,On-Street,0,1,37.78184072,-122.4676359,-122.4676359,37.78184072
477,San Francisco,SF-J24,8th St at Ringold St,31,2017-08-11,On-Street,1,1,37.7745204,-122.4094494,-122.4094494,37.7745204
478,San Francisco,SF-M27,8th St at Hooper St,25,2017-08-09,On-Street,0,1,37.76722354,-122.4002184,-122.4002184,37.76722354
479,San Francisco,SF-K26,8th St at Brannan St,31,2018-05-17,On-Street,0,1,37.77143136,-122.4057868,-122.4057868,37.7714313600001
480,San Francisco,SF-GGP-03,8th Ave at JFK Dr,27,2023-08-03,On-Street,0,1,37.77290764,-122.4659313,-122.4659313,37.77290764
481,San Francisco,SF-L27-2,7th St at King St,27,2019-10-31,On-Street,0,1,37.77122902,-122.4008864,-122.4008864,37.7712290200001
482,San Francisco,SF-O12,7th Ave at Lawton St,27,2020-11-24,On-Street,0,1,37.7587,-122.463774,-122.463774,37.7587
483,San Francisco,SF-M12,7th Ave at Irving St,27,2020-01-09,On-Street,0,1,37.76343361,-122.4640632,-122.4640632,37.76343361
484,San Francisco,SF-G12,7th Ave at Clement St,24,2020-01-28,Off-Street,0,1,37.78243852,-122.4653775,-122.4653775,37.78243852
485,San Francisco,SF-J12,7th Ave at Cabrillo St,23,2019-09-20,On-Street,0,1,37.77517551,-122.4650073,-122.4650073,37.7751755100001
486,San Francisco,SF-I26-2,5th St at Howard St,24,2023-09-22,On-Street,1,1,37.78133323,-122.4048243,-122.4048243,37.78133323
487,San Francisco,SF-H12,5th Ave at Anza St,21,2019-10-02,On-Street,0,1,37.77948761,-122.4631418,-122.4631418,37.77948761
488,San Francisco,SF-L30-1,4th St at Mission Bay Blvd S,27,2017-09-22,On-Street,0,1,37.7704074,-122.3911984,-122.3911984,37.7704074000001
489,San Francisco,SF-K30-3,4th St at Long Bridge St,19,2022-01-19,On-Street,0,1,37.77378645,-122.3914258,-122.3914258,37.77378645
490,San Francisco,SF-I28,4th St at Harrison St,31,2017-08-15,On-Street,1,1,37.78067477,-122.4008113,-122.4008113,37.7806747700001
491,San Francisco,SF-M30-4,4th St at Gene Friend Way,35,2022-01-21,On-Street,0,1,37.76888906,-122.391113,-122.391113,37.76888906
492,San Francisco,SF-J29-1,3rd St at Townsend St,39,2017-06-23,On-Street,0,1,37.77874161,-122.3927408,-122.3927408,37.7787416100001
493,San Francisco,SF-I30,2nd St at Townsend St,39,2017-06-26,On-Street,0,1,37.780526,-122.390288,-122.390288,37.7805260000001
494,San Francisco,SF-H29,2nd St at Folsom St,37,2017-06-22,On-Street,0,1,37.7854529,-122.3965117,-122.3965117,37.7854529000001
495,San Francisco,SF-G29-2,1st St at Folsom St,23,2017-06-12,On-Street,0,1,37.78729,-122.39438,-122.39438,37.78729
496,Berkeley,BK-I5,Woolsey St at Sacramento St,14,2018-02-06,On-Street,1,1,37.8505777,-122.27818,-122.27818,37.8505777
497,Berkeley,BK-D4,West St at University Ave,15,2018-07-26,Off-Street,0,1,37.8699667,-122.28653,-122.28653,37.8699667000001
498,Berkeley,BK-B7,Virginia St at Shattuck Ave,23,2018-03-15,On-Street,0,1,37.8765725,-122.26953,-122.26953,37.8765725000001
499,Berkeley,BK-A7,Vine St at Shattuck Ave,15,2017-12-11,On-Street,0,1,37.8802224,-122.26959,-122.26959,37.8802224
500,Berkeley,BK-C8,University Ave at Oxford St,23,2017-12-15,Off-Street,0,1,37.8723555,-122.26645,-122.26645,37.8723555
501,Berkeley,BK-F9,Telegraph Ave at Carleton St,19,2017-12-04,On-Street,0,1,37.8623199,-122.2588,-122.2588,37.8623199
502,Berkeley,BK-H9,Telegraph Ave at Ashby Ave,19,2017-07-10,Off-Street,0,1,37.8559558,-122.25979,-122.25979,37.8559558000001
503,Berkeley,BK-C7,Shattuck Ave at Hearst Ave,23,2017-07-10,On-Street,0,1,37.8736762,-122.26849,-122.26849,37.8736762
504,Berkeley,BK-G4,San Pablo Park,19,2018-04-17,On-Street,1,1,37.8557833,-122.28313,-122.28313,37.8557833
505,Berkeley,BK-G8,Russell St at Ellsworth St,15,2017-12-27,On-Street,0,1,37.85760775,-122.2616047,-122.2616047,37.8576077500001
506,Berkeley,BK-H10,Russell St at College Ave,19,2017-10-20,On-Street,0,1,37.8584732,-122.25325,-122.25325,37.8584732
507,Berkeley,BK-F8,Parker St at Fulton St,23,2017-11-24,On-Street,0,1,37.8624644,-122.26479,-122.26479,37.8624644000001
508,Berkeley,BK-G7,Oregon St at Adeline St,20,2017-10-10,On-Street,0,1,37.8575672,-122.26756,-122.26756,37.8575672000001
509,Berkeley,BK-C5,North Berkeley BART Station,31,2017-11-16,Off-Street,0,1,37.8738557,-122.2829883,-122.2829883,37.8738557
510,Berkeley,BK-F2,Ninth St at Parker St,15,2017-11-17,Off-Street,1,1,37.8588682,-122.29121,-122.29121,37.8588682000001
511,Berkeley,BK-H3,Ninth St at Heinz Ave,15,2017-11-17,Off-Street,1,1,37.85305033,-122.2894818,-122.2894818,37.85305033
512,Berkeley,BK-C6,MLK Jr Way at University Ave,23,2017-10-10,Off-Street,0,1,37.8717192,-122.27307,-122.27307,37.8717192
513,Berkeley,BK-F7,Milvia St at Derby St,23,2018-03-13,On-Street,0,1,37.8601246,-122.26938,-122.26938,37.8601246000001
514,Berkeley,BK-C9,Hearst Ave at Euclid Ave,11,2018-02-21,On-Street,0,1,37.8751117,-122.26055,-122.26055,37.8751117
515,Berkeley,BK-E9-2,Haste St at Telegraph Ave,19,2017-07-10,On-Street,1,1,37.8660431,-122.2588,-122.2588,37.8660431000001
516,Berkeley,BK-E10,Haste St at College Ave,23,2018-06-20,On-Street,0,1,37.8664179,-122.2538,-122.2538,37.8664179
517,Berkeley,BK-I6,Harmon St at Adeline St,19,2017-12-27,On-Street,0,1,37.849735,-122.27058,-122.27058,37.8497350000001
518,Berkeley,BK-E8,Fulton St at Bancroft Way,23,2017-07-10,On-Street,1,1,37.8677892,-122.2659,-122.2659,37.8677892000001
519,Berkeley,BK-H8,Fulton St at Ashby Ave,19,2018-03-29,On-Street,0,1,37.8555737,-122.26357,-122.26357,37.8555737
520,Berkeley,BK-C1,Fifth St at Delaware St,15,2017-06-20,On-Street,1,1,37.8704071,-122.29968,-122.29968,37.8704071000001
521,Berkeley,BK-D7-1,Downtown Berkeley BART,29,2017-07-11,Off-Street,1,1,37.870139,-122.26842,-122.26842,37.8701390000001
522,Berkeley,BK-F10,Derby St at College Ave,19,2017-12-22,On-Street,0,1,37.861753,-122.253785,-122.253785,37.8617530000001
523,Berkeley,BK-A3,College Ave at Alcatraz Ave,15,2018-02-06,On-Street,0,1,37.8513755,-122.25252,-122.25252,37.8513755000001
524,Berkeley,BK-E7,Channing Way at Shattuck Ave,23,2018-02-28,On-Street,1,1,37.8658466,-122.26744,-122.26744,37.8658466000001
525,Berkeley,BK-E3,Channing Way at San Pablo Ave,23,2017-12-08,On-Street,1,1,37.8628271,-122.29023,-122.29023,37.8628271000001
526,Berkeley,BK-D5,California St at University Ave,15,2017-10-18,On-Street,0,1,37.8705553,-122.27972,-122.27972,37.8705553
527,Berkeley,BK-D7-2,Berkeley Civic Center,21,2017-07-10,On-Street,1,1,37.8690599,-122.27056,-122.27056,37.8690599
528,Berkeley,BK-E9-1,Bancroft Way at Telegraph Ave,23,2017-08-29,Off-Street,0,1,37.8688126,-122.25876,-122.25876,37.8688126000001
529,Berkeley,BK-H6,Ashby BART Station,23,2017-08-02,Off-Street,0,1,37.8524766,-122.27021,-122.27021,37.8524766
530,Berkeley,BK-D1,Addison St at Fourth St,23,2017-11-16,On-Street,1,1,37.866249,-122.29937,-122.29937,37.866249
531,Berkeley,BK-D2,10th St at University Ave,19,2018-07-19,On-Street,0,1,37.8690605,-122.2934,-122.2934,37.8690605
